[{"OBJECT_NAME":"GEESAT-3 06","OBJECT_ID":"2024-159F","EPOCH":"2026-03-09T22:12:27.756864","MEAN_MOTION":14.83812718,"ECCENTRICITY":0.00165501,"INCLINATION":49.9964,"RA_OF_ASC_NODE":183.6395,"ARG_OF_PERICENTER":57.3652,"MEAN_ANOMALY":302.8881,"EPHEMERIS_TYPE":0,"CLASSIFICATION_TYPE":"U","NORAD_CAT_ID":61016,"ELEMENT_SET_NO":999,"REV_AT_EPOCH":8202,"BSTAR":0.00040497457,"MEAN_MOTION_DOT":3.17e-5,"MEAN_MOTION_DDOT":0},{"OBJECT_NAME":"FENGYUN 1C DEB","OBJECT_ID":"1999-025BTX","EPOCH":"2026-03-08T17:49:10.867296","MEAN_MOTION":14.53615214,"ECCENTRICITY":0.01476461,"INCLINATION":99.0438,"RA_OF_ASC_NODE":251.3645,"ARG_OF_PERICENTER":281.2353,"MEAN_ANOMALY":77.2278,"EPHEMERIS_TYPE":0,"CLASSIFICATION_TYPE":"U","NORAD_CAT_ID":31435,"ELEMENT_SET_NO":999,"REV_AT_EPOCH":99622,"BSTAR":0.00026084624,"MEAN_MOTION_DOT":1.197e-5,"MEAN_MOTION_DDOT":0}]
